STARLINK-32612          
1 61972U 24210P   26068.34235245  .00033572  00000+0  12230-2 0  9993
2 61972  43.0011 182.0561 0003043 285.6662  74.3854 15.27601895 74820
OTTER                   
1 62623U 25009Q   26068.72300813  .00012198  00000+0  45151-3 0  9990
2 62623  97.4065 151.3812 0003573 310.7710  49.3219 15.27809545 63722
